norad_id,name,regime,epoch,line1,line2,inclination,eccentricity,mean_motion,raan,arg_pericenter,mean_anomaly
20083,RADUGA 1-1,EGO,95203.86855015,1 20083U 89048  A 95203.86855015 -.00000050 +00000-0 +00000-0 0 03135\,2 20083 003.6828 064.2596 0003786 061.7819 196.4593 01.00271208019750,3.6828,0.0003786,1.00271208,64.2596,61.7819,196.4593
20083,RADUGA 1-1,EGO,95204.79521869,1 20083U 89048  A 95204.79521869 -.00000049 +00000-0 +00000-0 0 03133\,2 20083 003.6815 064.2422 0003925 064.8233 167.9502 01.00271338019761,3.6815,0.0003925,1.00271338,64.2422,64.8233,167.9502
20083,RADUGA 1-1,EGO,95205.99593875,1 20083U 89048  A 95205.99593875 -.00000048 +00000-0 +00000-0 0 03153\,2 20083 003.6891 064.3011 0003956 068.4251 237.7393 01.00271630019774,3.6891,0.0003956,1.0027163,64.3011,68.4251,237.7393
20083,RADUGA 1-1,EGO,95206.73203397,1 20083U 89048  A 95206.73203397 -.00000048 +00000-0 +00000-0 0 03153\,2 20083 003.6904 064.3289 0004115 071.1639 140.6930 01.00271790019782,3.6904,0.0004115,1.0027179,64.3289,71.1639,140.693
20083,RADUGA 1-1,EGO,95207.80379551,1 20083U 89048  A 95207.80379551 -.00000047 +00000-0 +00000-0 0 03168\,2 20083 003.6901 064.3322 0004119 070.9437 167.7985 01.00271884019799,3.6901,0.0004119,1.00271884,64.3322,70.9437,167.7985
20083,RADUGA 1-1,EGO,95209.21678241,1 20083U 89048  A 95209.21678241 -.00000046 +00000-0 +00000-0 0 03173\,2 20083 003.6932 064.3140 0004047 068.5849 320.2508 01.00272164019813,3.6932,0.0004047,1.00272164,64.314,68.5849,320.2508
20083,RADUGA 1-1,EGO,95209.80838564,1 20083U 89048  A 95209.80838564 -.00000046 +00000-0 +00000-0 0 03174\,2 20083 003.6921 064.2883 0004060 070.4330 172.0040 01.00272483019814,3.6921,0.000406,1.00272483,64.2883,70.433,172.004
20083,RADUGA 1-1,EGO,95210.53088968,1 20083U 89048  A 95210.53088968 -.00000045 +00000-0 +00000-0 0 03170\,2 20083 003.6936 064.2959 0004074 067.7101 075.5306 01.00272628019828,3.6936,0.0004074,1.00272628,64.2959,67.7101,75.5306
20083,RADUGA 1-1,EGO,95210.74002537,1 20083U 89048  A 95210.74002537 -.00000045 +00000-0 +00000-0 0 03182\,2 20083 003.6942 064.2798 0004066 067.9568 150.7962 01.00272667019823,3.6942,0.0004066,1.00272667,64.2798,67.9568,150.7962
20083,RADUGA 1-1,EGO,95211.68150648,1 20083U 89048  A 95211.68150648 -.00000045 +00000-0 +00000-0 0 03194\,2 20083 003.6959 064.2640 0004067 068.1255 130.5079 01.00272790019837,3.6959,0.0004067,1.0027279,64.264,68.1255,130.5079
20083,RADUGA 1-1,EGO,95212.30741688,1 20083U 89048  A 95212.30741688 -.00000045 +00000-0 +00000-0 0 03206\,2 20083 003.7019 064.2640 0003912 066.2897 358.2948 01.00272942019848,3.7019,0.0003912,1.00272942,64.264,66.2897,358.2948
20083,RADUGA 1-1,EGO,95213.80643419,1 20083U 89048  A 95213.80643419 -.00000046 +00000-0 +10000-3 0 03198\,2 20083 003.7004 064.1957 0003859 066.9219 178.8647 01.00273326019857,3.7004,0.0003859,1.00273326,64.1957,66.9219,178.8647
20083,RADUGA 1-1,EGO,95214.80023008,1 20083U 89048  A 95214.80023008 -.00000048 +00000-0 +10000-3 0 03197\,2 20083 003.6967 064.1317 0003884 069.6659 174.9399 01.00273615019863,3.6967,0.0003884,1.00273615,64.1317,69.6659,174.9399
20083,RADUGA 1-1,EGO,95215.80799152,1 20083U 89048  A 95215.80799152 -.00000050 +00000-0 +10000-3 0 03203\,2 20083 003.6973 064.1190 0003939 069.9930 178.4205 01.00273758019879,3.6973,0.0003939,1.00273758,64.119,69.993,178.4205
20083,RADUGA 1-1,EGO,95216.31001949,1 20083U 89048  A 95216.31001949 -.00000052 +00000-0 +10000-3 0 03213\,2 20083 003.7028 064.1550 0003897 069.8432 359.7676 01.00274013019882,3.7028,0.0003897,1.00274013,64.155,69.8432,359.7676
20083,RADUGA 1-1,EGO,95217.30144605,1 20083U 89048  A 95217.30144605 -.00000055 +00000-0 +10000-3 0 03224\,2 20083 003.7099 064.2559 0003981 059.6721 007.7495 01.00274325019898,3.7099,0.0003981,1.00274325,64.2559,59.6721,7.7495
20083,RADUGA 1-1,EGO,95218.30563720,1 20083U 89048  A 95218.30563720 -.00000058 +00000-0 +10000-3 0 03221\,2 20083 003.7325 064.4022 0003753 068.6303 001.1370 01.00274180019901,3.7325,0.0003753,1.0027418,64.4022,68.6303,1.137
20083,RADUGA 1-1,EGO,95219.30758049,1 20083U 89048  A 95219.30758049 -.00000062 +00000-0 +10000-3 0 03238\,2 20083 003.7396 064.4370 0003774 069.6962 001.7290 01.00274247019912,3.7396,0.0003774,1.00274247,64.437,69.6962,1.729
20083,RADUGA 1-1,EGO,95220.30471339,1 20083U 89048  A 95220.30471339 -.00000065 +00000-0 +10000-3 0 03237\,2 20083 003.7440 064.4513 0003798 071.3013 000.0631 01.00274268019929,3.744,0.0003798,1.00274268,64.4513,71.3013,0.0631
20083,RADUGA 1-1,EGO,95222.30188616,1 20083U 89048  A 95222.30188616 -.00000068 +00000-0 +10000-3 0 03246\,2 20083 003.7521 064.4716 0003799 072.4138 359.8923 01.00274398019940,3.7521,0.0003799,1.00274398,64.4716,72.4138,359.8923
20083,RADUGA 1-1,EGO,95224.68983951,1 20083U 89048  A 95224.68983951 -.00000067 +00000-0 +10000-3 0 03287\,2 20083 003.7570 064.4699 0003624 061.1832 153.1304 01.00273914019960,3.757,0.0003624,1.00273914,64.4699,61.1832,153.1304
20083,RADUGA 1-1,EGO,95225.64519880,1 20083U 89048  A 95225.64519880 -.00000066 +00000-0 +10000-3 0 03290\,2 20083 003.7598 064.5156 0003622 061.1583 137.9869 01.00274007019971,3.7598,0.0003622,1.00274007,64.5156,61.1583,137.9869
20083,RADUGA 1-1,EGO,95228.62560192,1 20083U 89048  A 95228.62560192 -.00000061 +00000-0 +10000-3 0 03311\,2 20083 003.7645 064.4298 0003529 064.7064 130.4297 01.00274330020007,3.7645,0.0003529,1.0027433,64.4298,64.7064,130.4297
20083,RADUGA 1-1,EGO,95230.01101796,1 20083U 89048  A 95230.01101796 -.00000059 +00000-0 +10000-3 0 03292\,2 20083 003.7606 064.3003 0003589 066.0395 269.3450 01.00274374020017,3.7606,0.0003589,1.00274374,64.3003,66.0395,269.345
20083,RADUGA 1-1,EGO,95230.79206852,1 20083U 89048  A 95230.79206852 -.00000058 +00000-0 +10000-3 0 03318\,2 20083 003.7558 064.2834 0003675 066.4910 190.8639 01.00274447020026,3.7558,0.0003675,1.00274447,64.2834,66.491,190.8639
20083,RADUGA 1-1,EGO,95232.81058512,1 20083U 89048  A 95232.81058512 -.00000056 +00000-0 +10000-3 0 03320\,2 20083 003.7554 064.2391 0003780 070.0403 196.0441 01.00274817020047,3.7554,0.000378,1.00274817,64.2391,70.0403,196.0441
20083,RADUGA 1-1,EGO,95234.93001286,1 20083U 89048  A 95234.93001286 -.00000054 +00000-0 +10000-3 0 03318\,2 20083 003.7571 064.1890 0003973 075.8324 235.3966 01.00274739020062,3.7571,0.0003973,1.00274739,64.189,75.8324,235.3966
20083,RADUGA 1-1,EGO,95235.89631133,1 20083U 89048  A 95235.89631133 -.00000054 +00000-0 +10000-3 0 03358\,2 20083 003.7510 064.1060 0004012 077.1209 223.0316 01.00275063020071,3.751,0.0004012,1.00275063,64.106,77.1209,223.0316
20083,RADUGA 1-1,EGO,95236.81172493,1 20083U 89048  A 95236.81172493 -.00000053 +00000-0 +10000-3 0 03337\,2 20083 003.7502 064.0845 0004024 077.2953 193.3435 01.00275227020086,3.7502,0.0004024,1.00275227,64.0845,77.2953,193.3435
20083,RADUGA 1-1,EGO,95237.72083211,1 20083U 89048  A 95237.72083211 -.00000052 +00000-0 +10000-3 0 03347\,2 20083 003.7509 064.0978 0004049 077.1859 161.6240 01.00275305020091,3.7509,0.0004049,1.00275305,64.0978,77.1859,161.624
20083,RADUGA 1-1,EGO,95239.88248108,1 20083U 89048  A 95239.88248108 -.00000052 +00000-0 +10000-3 0 03333\,2 20083 003.7535 064.0492 0004042 077.5005 221.7139 01.00275617020115,3.7535,0.0004042,1.00275617,64.0492,77.5005,221.7139
20083,RADUGA 1-1,EGO,95240.27734878,1 20083U 89048  A 95240.27734878 -.00000052 +00000-0 +10000-3 0 03343\,2 20083 003.7559 064.0556 0003997 076.1638 005.5946 01.00275713020129,3.7559,0.0003997,1.00275713,64.0556,76.1638,5.5946
20083,RADUGA 1-1,EGO,95241.28287027,1 20083U 89048  A 95241.28287027 -.00000053 +00000-0 +10000-3 0 03345\,2 20083 003.7409 064.1294 0004384 078.4334 006.2638 01.00276517020132,3.7409,0.0004384,1.00276517,64.1294,78.4334,6.2638
20083,RADUGA 1-1,EGO,95241.60961000,1 20083U 89048  A 95241.60961000 -.00000053 +00000-0 +10000-3 0 03352\,2 20083 003.7420 064.1529 0004312 078.9040 123.7150 01.00276349020133,3.742,0.0004312,1.00276349,64.1529,78.904,123.715
20083,RADUGA 1-1,EGO,95242.25978537,1 20083U 89048  A 95242.25978537 -.00000054 +00000-0 +10000-3 0 03369\,2 20083 003.7441 064.1966 0004343 077.5766 359.7124 01.00276423020141,3.7441,0.0004343,1.00276423,64.1966,77.5766,359.7124
20083,RADUGA 1-1,EGO,95243.85229001,1 20083U 89048  A 95243.85229001 -.00000058 +00000-0 +10000-3 0 03400\,2 20083 003.7492 063.8860 0004067 080.2863 212.1818 01.00275335020152,3.7492,0.0004067,1.00275335,63.886,80.2863,212.1818
20083,RADUGA 1-1,EGO,95244.87090920,1 20083U 89048  A 95244.87090920 -.00000061 +00000-0 +10000-3 0 03403\,2 20083 003.7532 063.8118 0004051 081.7964 218.4626 01.00275410020165,3.7532,0.0004051,1.0027541,63.8118,81.7964,218.4626
20083,RADUGA 1-1,EGO,95245.74707661,1 20083U 89048  A 95245.74707661 -.00000064 +00000-0 +10000-3 0 03411\,2 20083 003.7569 063.7638 0004013 082.3844 174.2185 01.00275552020170,3.7569,0.0004013,1.00275552,63.7638,82.3844,174.2185
20083,RADUGA 1-1,EGO,95247.79533228,1 20083U 89048  A 95247.79533228 -.00000070 +00000-0 +10000-3 0 03400\,2 20083 003.7577 063.7070 0004238 085.6541 190.4301 01.00276000020199,3.7577,0.0004238,1.00276,63.707,85.6541,190.4301
20083,RADUGA 1-1,EGO,95249.86459332,1 20083U 89048  A 95249.86459332 -.00000073 +00000-0 +10000-3 0 03417\,2 20083 003.7611 063.8396 0004193 086.5187 216.4277 01.00276030020213,3.7611,0.0004193,1.0027603,63.8396,86.5187,216.4277
20083,RADUGA 1-1,EGO,95251.60575759,1 20083U 89048  A 95251.60575759 -.00000073 +00000-0 +10000-3 0 03414\,2 20083 003.7637 063.9164 0004181 086.5228 124.9040 01.00276131020233,3.7637,0.0004181,1.00276131,63.9164,86.5228,124.904
20083,RADUGA 1-1,EGO,95254.76655537,1 20083U 89048  A 95254.76655537 -.00000068 +00000-0 +10000-3 0 03422\,2 20083 003.7768 063.9370 0003973 088.4824 183.9862 01.00276662020267,3.7768,0.0003973,1.00276662,63.937,88.4824,183.9862
20083,RADUGA 1-1,EGO,95257.88938650,1 20083U 89048  A 95257.88938650 -.00000064 +00000-0 +10000-3 0 03457\,2 20083 003.7937 064.1137 0003862 088.0324 231.6223 01.00277324020298,3.7937,0.0003862,1.00277324,64.1137,88.0324,231.6223
